METOP-C                 
1 43689U 18087A   26066.63931795  .00000163  00000+0  94161-4 0  9991
2 43689  98.6770 128.0471 0002185 102.6930 257.4492 14.21496292380407
GEO-KOMPSAT-2A          
1 43823U 18100A   26066.00441887 -.00000347  00000+0  00000+0 0  9995
2 43823   0.0434 343.1049 0001500  66.9640 244.4740  1.00274944 26604
METEOR-M2 2             
1 44387U 19038A   26066.59738508 -.00000105  00000+0 -25401-4 0  9995
2 44387  98.9087  52.4198 0001021   8.3814 351.7381 14.24331878346839
ARKTIKA-M 1             
1 47719U 21016A   26065.31200600 -.00000142  00000+0  00000+0 0  9995
2 47719  63.2063  72.3539 7244489 269.4705  15.1937  2.00620361 36724
FENGYUN 3E              
1 49008U 21062A   26066.58803104 -.00000261  00000+0 -10211-3 0  9999
2 49008  98.7511  71.1248 0002400  45.5640 314.5732 14.19892344242162
GOES 18                 
1 51850U 22021A   26066.52336347  .00000095  00000+0  00000+0 0  9991
2 51850   0.0311  63.1619 0000834 347.8880 165.5845  1.00273463  5572
NOAA 21 (JPSS-2)        
1 54234U 22150A   26066.60759996  .00000121  00000+0  78181-4 0  9991
2 54234  98.7553   6.8973 0002622 109.8293 250.3166 14.19551531172136
METEOSAT-12 (MTG-I1)    
1 54743U 22170C   26066.26572604 -.00000010  00000+0  00000+0 0  9997
2 54743   0.7039  21.8437 0001981 288.8260 309.6474  1.00270148 11954
TIANMU-1 03             
1 55973U 23039A   26066.61130574  .00024908  00000+0  54543-3 0  9999
2 55973  97.5176 236.8593 0004032 107.1466 253.0224 15.44102868165140
TIANMU-1 04             
1 55974U 23039B   26066.63531441  .00024921  00000+0  53814-3 0  9995
2 55974  97.5110 236.0450 0004694 103.2341 256.9431 15.44513356165157
TIANMU-1 05             
1 55975U 23039C   26066.58781337  .00024088  00000+0  52866-3 0  9991
2 55975  97.5157 236.4872 0003758 124.2044 235.9560 15.44043734165129
TIANMU-1 06             
1 55976U 23039D   26066.63515772  .00024789  00000+0  53483-3 0  9990
2 55976  97.5167 237.0745 0004131 119.8457 240.3202 15.44542433165157
FENGYUN 3G              
1 56232U 23055A   26066.64089767  .00042778  00000+0  63955-3 0  9998
2 56232  49.9924 149.5716 0010723   3.6976 356.4069 15.54468778164227
METEOR-M2 3             
1 57166U 23091A   26066.63944812  .00000010  00000+0  23114-4 0  9992
2 57166  98.6218 123.6374 0005091 103.8707 256.3039 14.24037435140060
TIANMU-1 07             
1 57399U 23101A   26065.57454230  .00008352  00000+0  29795-3 0  9991
2 57399  97.2728 118.5929 0004609 142.4105 217.7458 15.29118809145964
TIANMU-1 08             
1 57400U 23101B   26066.00237819  .00000346  00000+0  14775-4 0  9993
2 57400  97.2717 118.7901 0006380 134.2174 225.9592 15.29204229146020
TIANMU-1 09             
1 57401U 23101C   26066.63840447  .00010489  00000+0  37436-3 0  9997
2 57401  97.2673 118.8886 0004724 145.0420 215.1131 15.29036163146120
