[{"OBJECT_NAME":"METOP-C","OBJECT_ID":"2018-087A","EPOCH":"2026-03-07T15:20:37.070880","MEAN_MOTION":14.21496292,"ECCENTRICITY":0.00021855,"INCLINATION":98.677,"RA_OF_ASC_NODE":128.0471,"ARG_OF_PERICENTER":102.693,"MEAN_ANOMALY":257.4492,"EPHEMERIS_TYPE":0,"CLASSIFICATION_TYPE":"U","NORAD_CAT_ID":43689,"ELEMENT_SET_NO":999,"REV_AT_EPOCH":38040,"BSTAR":9.416104e-5,"MEAN_MOTION_DOT":1.63e-6,"MEAN_MOTION_DDOT":0},{"OBJECT_NAME":"GEO-KOMPSAT-2A","OBJECT_ID":"2018-100A","EPOCH":"2026-03-07T00:06:21.790368","MEAN_MOTION":1.00274944,"ECCENTRICITY":0.00015,"INCLINATION":0.0434,"RA_OF_ASC_NODE":343.1049,"ARG_OF_PERICENTER":66.964,"MEAN_ANOMALY":244.474,"EPHEMERIS_TYPE":0,"CLASSIFICATION_TYPE":"U","NORAD_CAT_ID":43823,"ELEMENT_SET_NO":999,"REV_AT_EPOCH":2660,"BSTAR":0,"MEAN_MOTION_DOT":-3.47e-6,"MEAN_MOTION_DDOT":0},{"OBJECT_NAME":"METEOR-M2 2","OBJECT_ID":"2019-038A","EPOCH":"2026-03-07T14:20:14.070912","MEAN_MOTION":14.24331878,"ECCENTRICITY":0.0001021,"INCLINATION":98.9087,"RA_OF_ASC_NODE":52.4198,"ARG_OF_PERICENTER":8.3814,"MEAN_ANOMALY":351.7381,"EPHEMERIS_TYPE":0,"CLASSIFICATION_TYPE":"U","NORAD_CAT_ID":44387,"ELEMENT_SET_NO":999,"REV_AT_EPOCH":34683,"BSTAR":-2.5401071e-5,"MEAN_MOTION_DOT":-1.05e-6,"MEAN_MOTION_DDOT":0},{"OBJECT_NAME":"ARKTIKA-M 1","OBJECT_ID":"2021-016A","EPOCH":"2026-03-06T07:29:17.318400","MEAN_MOTION":2.00620361,"ECCENTRICITY":0.72444893,"INCLINATION":63.2063,"RA_OF_ASC_NODE":72.3539,"ARG_OF_PERICENTER":269.4705,"MEAN_ANOMALY":15.1937,"EPHEMERIS_TYPE":0,"CLASSIFICATION_TYPE":"U","NORAD_CAT_ID":47719,"ELEMENT_SET_NO":999,"REV_AT_EPOCH":3672,"BSTAR":0,"MEAN_MOTION_DOT":-1.42e-6,"MEAN_MOTION_DDOT":0},{"OBJECT_NAME":"FENGYUN 3E","OBJECT_ID":"2021-062A","EPOCH":"2026-03-07T14:06:45.881856","MEAN_MOTION":14.19892344,"ECCENTRICITY":0.00024008,"INCLINATION":98.7511,"RA_OF_ASC_NODE":71.1248,"ARG_OF_PERICENTER":45.564,"MEAN_ANOMALY":314.5732,"EPHEMERIS_TYPE":0,"CLASSIFICATION_TYPE":"U","NORAD_CAT_ID":49008,"ELEMENT_SET_NO":999,"REV_AT_EPOCH":24216,"BSTAR":-0.00010210611,"MEAN_MOTION_DOT":-2.61e-6,"MEAN_MOTION_DDOT":0},{"OBJECT_NAME":"GOES 18","OBJECT_ID":"2022-021A","EPOCH":"2026-03-07T12:33:38.603808","MEAN_MOTION":1.00273463,"ECCENTRICITY":8.347e-5,"INCLINATION":0.0311,"RA_OF_ASC_NODE":63.1619,"ARG_OF_PERICENTER":347.888,"MEAN_ANOMALY":165.5845,"EPHEMERIS_TYPE":0,"CLASSIFICATION_TYPE":"U","NORAD_CAT_ID":51850,"ELEMENT_SET_NO":999,"REV_AT_EPOCH":557,"BSTAR":0,"MEAN_MOTION_DOT":9.5e-7,"MEAN_MOTION_DDOT":0},{"OBJECT_NAME":"NOAA 21 (JPSS-2)","OBJECT_ID":"2022-150A","EPOCH":"2026-03-07T14:34:56.636544","MEAN_MOTION":14.19551531,"ECCENTRICITY":0.00026225,"INCLINATION":98.7553,"RA_OF_ASC_NODE":6.8973,"ARG_OF_PERICENTER":109.8293,"MEAN_ANOMALY":250.3166,"EPHEMERIS_TYPE":0,"CLASSIFICATION_TYPE":"U","NORAD_CAT_ID":54234,"ELEMENT_SET_NO":999,"REV_AT_EPOCH":17213,"BSTAR":7.8180972e-5,"MEAN_MOTION_DOT":1.21e-6,"MEAN_MOTION_DDOT":0},{"OBJECT_NAME":"METEOSAT-12 (MTG-I1)","OBJECT_ID":"2022-170C","EPOCH":"2026-03-07T06:22:38.729856","MEAN_MOTION":1.00270148,"ECCENTRICITY":0.0001981,"INCLINATION":0.7039,"RA_OF_ASC_NODE":21.8437,"ARG_OF_PERICENTER":288.826,"MEAN_ANOMALY":309.6474,"EPHEMERIS_TYPE":0,"CLASSIFICATION_TYPE":"U","NORAD_CAT_ID":54743,"ELEMENT_SET_NO":999,"REV_AT_EPOCH":1195,"BSTAR":0,"MEAN_MOTION_DOT":-1.0e-7,"MEAN_MOTION_DDOT":0},{"OBJECT_NAME":"TIANMU-1 03","OBJECT_ID":"2023-039A","EPOCH":"2026-03-07T14:40:16.815936","MEAN_MOTION":15.44102868,"ECCENTRICITY":0.00040326,"INCLINATION":97.5176,"RA_OF_ASC_NODE":236.8593,"ARG_OF_PERICENTER":107.1466,"MEAN_ANOMALY":253.0224,"EPHEMERIS_TYPE":0,"CLASSIFICATION_TYPE":"U","NORAD_CAT_ID":55973,"ELEMENT_SET_NO":999,"REV_AT_EPOCH":16514,"BSTAR":0.00054542798,"MEAN_MOTION_DOT":0.00024908,"MEAN_MOTION_DDOT":0},{"OBJECT_NAME":"TIANMU-1 04","OBJECT_ID":"2023-039B","EPOCH":"2026-03-07T15:14:51.165024","MEAN_MOTION":15.44513356,"ECCENTRICITY":0.00046945,"INCLINATION":97.511,"RA_OF_ASC_NODE":236.045,"ARG_OF_PERICENTER":103.2341,"MEAN_ANOMALY":256.9431,"EPHEMERIS_TYPE":0,"CLASSIFICATION_TYPE":"U","NORAD_CAT_ID":55974,"ELEMENT_SET_NO":999,"REV_AT_EPOCH":16515,"BSTAR":0.00053814084,"MEAN_MOTION_DOT":0.00024921,"MEAN_MOTION_DDOT":0},{"OBJECT_NAME":"TIANMU-1 05","OBJECT_ID":"2023-039C","EPOCH":"2026-03-07T14:06:27.075168","MEAN_MOTION":15.44043734,"ECCENTRICITY":0.00037589,"INCLINATION":97.5157,"RA_OF_ASC_NODE":236.4872,"ARG_OF_PERICENTER":124.2044,"MEAN_ANOMALY":235.956,"EPHEMERIS_TYPE":0,"CLASSIFICATION_TYPE":"U","NORAD_CAT_ID":55975,"ELEMENT_SET_NO":999,"REV_AT_EPOCH":16512,"BSTAR":0.00052865697,"MEAN_MOTION_DOT":0.00024088,"MEAN_MOTION_DDOT":0},{"OBJECT_NAME":"TIANMU-1 06","OBJECT_ID":"2023-039D","EPOCH":"2026-03-07T15:14:37.627008","MEAN_MOTION":15.44542433,"ECCENTRICITY":0.00041314,"INCLINATION":97.5167,"RA_OF_ASC_NODE":237.0745,"ARG_OF_PERICENTER":119.8457,"MEAN_ANOMALY":240.3202,"EPHEMERIS_TYPE":0,"CLASSIFICATION_TYPE":"U","NORAD_CAT_ID":55976,"ELEMENT_SET_NO":999,"REV_AT_EPOCH":16515,"BSTAR":0.00053482817,"MEAN_MOTION_DOT":0.00024789,"MEAN_MOTION_DDOT":0},{"OBJECT_NAME":"FENGYUN 3G","OBJECT_ID":"2023-055A","EPOCH":"2026-03-07T15:22:53.558688","MEAN_MOTION":15.54468778,"ECCENTRICITY":0.00107233,"INCLINATION":49.9924,"RA_OF_ASC_NODE":149.5716,"ARG_OF_PERICENTER":3.6976,"MEAN_ANOMALY":356.4069,"EPHEMERIS_TYPE":0,"CLASSIFICATION_TYPE":"U","NORAD_CAT_ID":56232,"ELEMENT_SET_NO":999,"REV_AT_EPOCH":16422,"BSTAR":0.00063954865,"MEAN_MOTION_DOT":0.00042778,"MEAN_MOTION_DDOT":0},{"OBJECT_NAME":"METEOR-M2 3","OBJECT_ID":"2023-091A","EPOCH":"2026-03-07T15:20:48.317568","MEAN_MOTION":14.24037435,"ECCENTRICITY":0.00050918,"INCLINATION":98.6218,"RA_OF_ASC_NODE":123.6374,"ARG_OF_PERICENTER":103.8707,"MEAN_ANOMALY":256.3039,"EPHEMERIS_TYPE":0,"CLASSIFICATION_TYPE":"U","NORAD_CAT_ID":57166,"ELEMENT_SET_NO":999,"REV_AT_EPOCH":14006,"BSTAR":2.3114155e-5,"MEAN_MOTION_DOT":1.0e-7,"MEAN_MOTION_DDOT":0},{"OBJECT_NAME":"TIANMU-1 07","OBJECT_ID":"2023-101A","EPOCH":"2026-03-06T13:47:20.454720","MEAN_MOTION":15.29118809,"ECCENTRICITY":0.00046097,"INCLINATION":97.2728,"RA_OF_ASC_NODE":118.5929,"ARG_OF_PERICENTER":142.4105,"MEAN_ANOMALY":217.7458,"EPHEMERIS_TYPE":0,"CLASSIFICATION_TYPE":"U","NORAD_CAT_ID":57399,"ELEMENT_SET_NO":999,"REV_AT_EPOCH":14596,"BSTAR":0.00029794732,"MEAN_MOTION_DOT":8.352e-5,"MEAN_MOTION_DDOT":0},{"OBJECT_NAME":"TIANMU-1 08","OBJECT_ID":"2023-101B","EPOCH":"2026-03-07T00:03:25.475616","MEAN_MOTION":15.29204229,"ECCENTRICITY":0.00063808,"INCLINATION":97.2717,"RA_OF_ASC_NODE":118.7901,"ARG_OF_PERICENTER":134.2174,"MEAN_ANOMALY":225.9592,"EPHEMERIS_TYPE":0,"CLASSIFICATION_TYPE":"U","NORAD_CAT_ID":57400,"ELEMENT_SET_NO":999,"REV_AT_EPOCH":14602,"BSTAR":1.4774513e-5,"MEAN_MOTION_DOT":3.46e-6,"MEAN_MOTION_DDOT":0},{"OBJECT_NAME":"TIANMU-1 09","OBJECT_ID":"2023-101C","EPOCH":"2026-03-07T15:19:18.146208","MEAN_MOTION":15.29036163,"ECCENTRICITY":0.0004724,"INCLINATION":97.2673,"RA_OF_ASC_NODE":118.8886,"ARG_OF_PERICENTER":145.042,"MEAN_ANOMALY":215.1131,"EPHEMERIS_TYPE":0,"CLASSIFICATION_TYPE":"U","NORAD_CAT_ID":57401,"ELEMENT_SET_NO":999,"REV_AT_EPOCH":14612,"BSTAR":0.00037436447,"MEAN_MOTION_DOT":0.00010489,"MEAN_MOTION_DDOT":0}]
